*******************************************************************************
Ephemeris / WWW_USER Mon Jul 15 19:08:05 2024 Pasadena, USA      / Horizons    
*******************************************************************************
Target body name: (2017 SN16)                     {source: JPL#20}
Center body name: Earth (399)                     {source: DE441}
Center-site name: Gemini South Obs., Cerro Pachon
*******************************************************************************
Start time      : A.D. 2018-Nov-20 23:30:00.0000 UT      
Stop  time      : A.D. 2018-Nov-21 09:26:00.0000 UT      
Step-size       : 1 minutes
*******************************************************************************
Target pole/equ : undefined
Target radii    : undefined                                                    
Center geodetic : 289.2634, -30.2406227, 2.71233  {E-lon(deg),Lat(deg),Alt(km)}
Center cylindric: 289.2634,5517.21435,-3194.81213 {E-lon(deg),Dxy(km),Dz(km)}
Center pole/equ : ITRF93                          {East-longitude positive}
Center radii    : 6378.137, 6378.137, 6356.752 km {Equator_a, b, pole_c}       
Target primary  : Sun
Vis. interferer : MOON (R_eq= 1737.400) km        {source: DE441}
Rel. light bend : Sun                             {source: DE441}
Rel. lght bnd GM: 1.3271E+11 km^3/s^2                                          
Small-body perts: Yes                             {source: SB441-N16}
Atmos refraction: NO (AIRLESS)
RA format       : HMS
Time format     : CAL 
Calendar mode   : Mixed Julian/Gregorian
RTS-only print  : NO       
EOP file        : eop.240715.p241008                                           
EOP coverage    : DATA-BASED 1962-JAN-20 TO 2024-JUL-15. PREDICTS-> 2024-OCT-07
Units conversion: 1 au= 149597870.700 km, c= 299792.458 km/s, 1 day= 86400.0 s 
Table cut-offs 1: Elevation (-90.0deg=NO ),Airmass (>38.000=NO), Daylight (YES)
Table cut-offs 2: Solar elongation (  0.0,180.0=NO ),Local Hour Angle( 0.0=NO )
Table cut-offs 3: RA/DEC angular rate (     0.0=NO )                           
*******************************************************************************
Initial IAU76/J2000 heliocentric ecliptic osculating elements (au, days, deg.):
  EPOCH=  2458305.5 ! 2018-Jul-06.00 (TDB)         Residual RMS= .23751        
   EC= .1454884975659386   QR= .8682464985612274   TP= 2458145.5722438502      
   OM= 2.759719470837934   W=  137.1017088998531   IN= 13.38264682844635       
  Equivalent ICRF heliocentric cartesian coordinates (au, au/d):
   X= 5.756755401261899E-01  Y=-7.953424559592890E-01  Z=-6.031561894536019E-01
  VX= 1.332076113263395E-02 VY= 5.454663564585547E-03 VZ= 3.896229736425836E-03
Asteroid physical parameters (km, seconds, rotational period in hours):        
   GM= n.a.                RAD= n.a.               ROTPER= n.a.                
   H= 23.34                G= .150                 B-V= n.a.                   
                           ALBEDO= n.a.            STYP= n.a.                  
*******************************************************************************
 Date__(UT)__HR:MN     R.A._________(ICRF)_________DEC
******************************************************
$$SOE
 2018-Nov-21 05:39  m  20 30 13.433806 +30 01 13.11603
 2018-Nov-21 05:40  m  20 30 13.416911 +30 01 13.91910
 2018-Nov-21 05:41  m  20 30 13.400054 +30 01 14.72236
 2018-Nov-21 05:42  m  20 30 13.383237 +30 01 15.52579
 2018-Nov-21 05:43  m  20 30 13.366458 +30 01 16.32941
 2018-Nov-21 05:44  m  20 30 13.349718 +30 01 17.13321
 2018-Nov-21 05:45  m  20 30 13.333017 +30 01 17.93719
 2018-Nov-21 05:46  m  20 30 13.316354 +30 01 18.74136
 2018-Nov-21 05:47  m  20 30 13.299729 +30 01 19.54571
 2018-Nov-21 05:48  m  20 30 13.283142 +30 01 20.35025
 2018-Nov-21 05:49  m  20 30 13.266594 +30 01 21.15498
 2018-Nov-21 05:50  m  20 30 13.250083 +30 01 21.95990
 2018-Nov-21 05:51  m  20 30 13.233611 +30 01 22.76500
 2018-Nov-21 05:52  m  20 30 13.217175 +30 01 23.57030
 2018-Nov-21 05:53  m  20 30 13.200778 +30 01 24.37579
 2018-Nov-21 05:54  m  20 30 13.184417 +30 01 25.18148
 2018-Nov-21 05:55  m  20 30 13.168094 +30 01 25.98736
 2018-Nov-21 05:56  m  20 30 13.151808 +30 01 26.79343
 2018-Nov-21 05:57  m  20 30 13.135559 +30 01 27.59970
 2018-Nov-21 05:58  m  20 30 13.119347 +30 01 28.40617
 2018-Nov-21 05:59  m  20 30 13.103171 +30 01 29.21284
 2018-Nov-21 06:00  m  20 30 13.087032 +30 01 30.01971
 2018-Nov-21 06:01  m  20 30 13.070929 +30 01 30.82678
 2018-Nov-21 06:02  m  20 30 13.054863 +30 01 31.63405
 2018-Nov-21 06:03  m  20 30 13.038832 +30 01 32.44152
 2018-Nov-21 06:04  m  20 30 13.022838 +30 01 33.24920
 2018-Nov-21 06:05  m  20 30 13.006879 +30 01 34.05708
 2018-Nov-21 06:06  m  20 30 12.990956 +30 01 34.86516
 2018-Nov-21 06:07  m  20 30 12.975069 +30 01 35.67346
 2018-Nov-21 06:08  m  20 30 12.959217 +30 01 36.48196
 2018-Nov-21 06:09  m  20 30 12.943400 +30 01 37.29067
 2018-Nov-21 06:10  m  20 30 12.927619 +30 01 38.09959
 2018-Nov-21 06:11  m  20 30 12.911872 +30 01 38.90872
 2018-Nov-21 06:12  m  20 30 12.896160 +30 01 39.71807
 2018-Nov-21 06:13  m  20 30 12.880482 +30 01 40.52762
 2018-Nov-21 06:14  m  20 30 12.864840 +30 01 41.33740
 2018-Nov-21 06:15  m  20 30 12.849231 +30 01 42.14738
 2018-Nov-21 06:16  m  20 30 12.833657 +30 01 42.95758
 2018-Nov-21 06:17  m  20 30 12.818117 +30 01 43.76800
 2018-Nov-21 06:18  m  20 30 12.802610 +30 01 44.57864
 2018-Nov-21 06:19  m  20 30 12.787137 +30 01 45.38949
 2018-Nov-21 06:20  m  20 30 12.771698 +30 01 46.20056
 2018-Nov-21 06:21  m  20 30 12.756293 +30 01 47.01186
 2018-Nov-21 06:22  m  20 30 12.740920 +30 01 47.82337
 2018-Nov-21 06:23  m  20 30 12.725581 +30 01 48.63511
 2018-Nov-21 06:24  m  20 30 12.710275 +30 01 49.44708
 2018-Nov-21 06:25  m  20 30 12.695001 +30 01 50.25926
 2018-Nov-21 06:26  m  20 30 12.679760 +30 01 51.07167
 2018-Nov-21 06:27  m  20 30 12.664552 +30 01 51.88431
 2018-Nov-21 06:28  m  20 30 12.649376 +30 01 52.69718
 2018-Nov-21 06:29  m  20 30 12.634232 +30 01 53.51027
 2018-Nov-21 06:30  m  20 30 12.619120 +30 01 54.32359
 2018-Nov-21 06:31  m  20 30 12.604040 +30 01 55.13715
 2018-Nov-21 06:32  m  20 30 12.588992 +30 01 55.95093
 2018-Nov-21 06:33  m  20 30 12.573975 +30 01 56.76494
 2018-Nov-21 06:34  m  20 30 12.558989 +30 01 57.57919
 2018-Nov-21 06:35  m  20 30 12.544035 +30 01 58.39367
 2018-Nov-21 06:36  m  20 30 12.529112 +30 01 59.20839
 2018-Nov-21 06:37  m  20 30 12.514219 +30 02 00.02334
 2018-Nov-21 06:38  m  20 30 12.499358 +30 02 00.83853
 2018-Nov-21 06:39  m  20 30 12.484527 +30 02 01.65395
 2018-Nov-21 06:40  m  20 30 12.469726 +30 02 02.46961
 2018-Nov-21 06:41  m  20 30 12.454955 +30 02 03.28551
 2018-Nov-21 06:42  m  20 30 12.440215 +30 02 04.10165
 2018-Nov-21 06:43  m  20 30 12.425504 +30 02 04.91803
 2018-Nov-21 06:44  m  20 30 12.410823 +30 02 05.73465
 2018-Nov-21 06:45  m  20 30 12.396172 +30 02 06.55152
 2018-Nov-21 06:46  m  20 30 12.381550 +30 02 07.36863
 2018-Nov-21 06:47  m  20 30 12.366957 +30 02 08.18598
 2018-Nov-21 06:48  m  20 30 12.352393 +30 02 09.00357
 2018-Nov-21 06:49  m  20 30 12.337858 +30 02 09.82141
 2018-Nov-21 06:50  m  20 30 12.323352 +30 02 10.63950
 2018-Nov-21 06:51  m  20 30 12.308874 +30 02 11.45783
 2018-Nov-21 06:52  m  20 30 12.294425 +30 02 12.27642
 2018-Nov-21 06:53  m  20 30 12.280003 +30 02 13.09525
 2018-Nov-21 06:54  m  20 30 12.265610 +30 02 13.91433
 2018-Nov-21 06:55  m  20 30 12.251245 +30 02 14.73366
 2018-Nov-21 06:56  m  20 30 12.236907 +30 02 15.55324
 2018-Nov-21 06:57  m  20 30 12.222597 +30 02 16.37307
 2018-Nov-21 06:58  m  20 30 12.208314 +30 02 17.19316
 2018-Nov-21 06:59  m  20 30 12.194058 +30 02 18.01350
 2018-Nov-21 07:00  m  20 30 12.179829 +30 02 18.83409
 2018-Nov-21 07:01  m  20 30 12.165627 +30 02 19.65494
 2018-Nov-21 07:02  m  20 30 12.151451 +30 02 20.47605
 2018-Nov-21 07:03  m  20 30 12.137302 +30 02 21.29741
 2018-Nov-21 07:04  m  20 30 12.123179 +30 02 22.11903
 2018-Nov-21 07:05  m  20 30 12.109082 +30 02 22.94090
 2018-Nov-21 07:06  m  20 30 12.095011 +30 02 23.76304
 2018-Nov-21 07:07  m  20 30 12.080965 +30 02 24.58543
 2018-Nov-21 07:08  m  20 30 12.066945 +30 02 25.40809
 2018-Nov-21 07:09  m  20 30 12.052951 +30 02 26.23100
 2018-Nov-21 07:10  m  20 30 12.038981 +30 02 27.05418
 2018-Nov-21 07:11  m  20 30 12.025037 +30 02 27.87762
 2018-Nov-21 07:12  m  20 30 12.011117 +30 02 28.70132
 2018-Nov-21 07:13  m  20 30 11.997222 +30 02 29.52529
 2018-Nov-21 07:14  m  20 30 11.983352 +30 02 30.34952
 2018-Nov-21 07:15  m  20 30 11.969505 +30 02 31.17401
 2018-Nov-21 07:16  m  20 30 11.955683 +30 02 31.99878
 2018-Nov-21 07:17  m  20 30 11.941884 +30 02 32.82380
 2018-Nov-21 07:18  m  20 30 11.928109 +30 02 33.64910
 2018-Nov-21 07:19  m  20 30 11.914358 +30 02 34.47466
 2018-Nov-21 07:20  m  20 30 11.900630 +30 02 35.30049
 2018-Nov-21 07:21  m  20 30 11.886925 +30 02 36.12660
 2018-Nov-21 07:22  m  20 30 11.873243 +30 02 36.95297
 2018-Nov-21 07:23  m  20 30 11.859584 +30 02 37.77961
 2018-Nov-21 07:24  m  20 30 11.845947 +30 02 38.60652
 2018-Nov-21 07:25  m  20 30 11.832333 +30 02 39.43370
 2018-Nov-21 07:26  m  20 30 11.818741 +30 02 40.26116
 2018-Nov-21 07:27  m  20 30 11.805171 +30 02 41.08889
 2018-Nov-21 07:28  m  20 30 11.791622 +30 02 41.91689
 2018-Nov-21 07:29  m  20 30 11.778095 +30 02 42.74517
 2018-Nov-21 07:30  m  20 30 11.764590 +30 02 43.57372
 2018-Nov-21 07:31  m  20 30 11.751106 +30 02 44.40255
 2018-Nov-21 07:32  m  20 30 11.737643 +30 02 45.23166
 2018-Nov-21 07:33  m  20 30 11.724200 +30 02 46.06104
 2018-Nov-21 07:34  m  20 30 11.710779 +30 02 46.89069
 2018-Nov-21 07:35  m  20 30 11.697378 +30 02 47.72063
 2018-Nov-21 07:36  m  20 30 11.683997 +30 02 48.55084
 2018-Nov-21 07:37  m  20 30 11.670636 +30 02 49.38134
 2018-Nov-21 07:38  m  20 30 11.657295 +30 02 50.21211
 2018-Nov-21 07:39  m  20 30 11.643974 +30 02 51.04316
 2018-Nov-21 07:40  m  20 30 11.630672 +30 02 51.87450
 2018-Nov-21 07:41  m  20 30 11.617390 +30 02 52.70611
